[Satellite]
VERSION=1.1
NAME=COSMOS 2454
NICKNAME=COSMOS 2454
TLE1=1 35635U 09039A   15055.21673626  .00000091  00000-0  61143-4 0  9991
TLE2=2 35635  82.9546 278.0895 0018821 192.1982 167.8729 13.89556882283849
